CCSDS_OMM_VERS = 2.0
CREATION_DATE  = 
ORIGINATOR     = 

OBJECT_NAME    = QIANFAN-92
OBJECT_ID      = 2025-233B
CENTER_NAME    = EARTH
REF_FRAME      = TEME
TIME_SYSTEM    = UTC
MEAN_ELEMENT_THEORY = SGP/SGP4

EPOCH          = 2025-11-02T08:09:56.279808
MEAN_MOTION    = 14.25994081
ECCENTRICITY   = .0015791
INCLINATION    = 88.9946
RA_OF_ASC_NODE = 66.6815
ARG_OF_PERICENTER = 161.1970
MEAN_ANOMALY   = 198.9810

EPHEMERIS_TYPE = 0
CLASSIFICATION_TYPE = U
NORAD_CAT_ID   = 66034
ELEMENT_SET_NO = 999
REV_AT_EPOCH   = 228
BSTAR          = .28696E-3
MEAN_MOTION_DOT = .7E-5
MEAN_MOTION_DDOT = 0

CCSDS_OMM_VERS = 2.0
CREATION_DATE  = 
ORIGINATOR     = 

OBJECT_NAME    = QIANFAN-93
OBJECT_ID      = 2025-233C
CENTER_NAME    = EARTH
REF_FRAME      = TEME
TIME_SYSTEM    = UTC
MEAN_ELEMENT_THEORY = SGP/SGP4

EPOCH          = 2025-11-02T08:08:33.254592
MEAN_MOTION    = 14.26077641
ECCENTRICITY   = .0015105
INCLINATION    = 88.9947
RA_OF_ASC_NODE = 66.6815
ARG_OF_PERICENTER = 160.5132
MEAN_ANOMALY   = 199.6642

EPHEMERIS_TYPE = 0
CLASSIFICATION_TYPE = U
NORAD_CAT_ID   = 66035
ELEMENT_SET_NO = 999
REV_AT_EPOCH   = 228
BSTAR          = .29068E-3
MEAN_MOTION_DOT = .71E-5
MEAN_MOTION_DDOT = 0

CCSDS_OMM_VERS = 2.0
CREATION_DATE  = 
ORIGINATOR     = 

OBJECT_NAME    = QIANFAN-94
OBJECT_ID      = 2025-233D
CENTER_NAME    = EARTH
REF_FRAME      = TEME
TIME_SYSTEM    = UTC
MEAN_ELEMENT_THEORY = SGP/SGP4

EPOCH          = 2025-11-02T11:30:18.342144
MEAN_MOTION    = 14.26103032
ECCENTRICITY   = .0015198
INCLINATION    = 88.9948
RA_OF_ASC_NODE = 66.6653
ARG_OF_PERICENTER = 159.7827
MEAN_ANOMALY   = 200.3972

EPHEMERIS_TYPE = 0
CLASSIFICATION_TYPE = U
NORAD_CAT_ID   = 66036
ELEMENT_SET_NO = 999
REV_AT_EPOCH   = 230
BSTAR          = .29061E-3
MEAN_MOTION_DOT = .71E-5
MEAN_MOTION_DDOT = 0

CCSDS_OMM_VERS = 2.0
CREATION_DATE  = 
ORIGINATOR     = 

OBJECT_NAME    = QIANFAN-95
OBJECT_ID      = 2025-233E
CENTER_NAME    = EARTH
REF_FRAME      = TEME
TIME_SYSTEM    = UTC
MEAN_ELEMENT_THEORY = SGP/SGP4

EPOCH          = 2025-11-02T11:29:56.234976
MEAN_MOTION    = 14.26148222
ECCENTRICITY   = .0015146
INCLINATION    = 88.9948
RA_OF_ASC_NODE = 66.6653
ARG_OF_PERICENTER = 160.1927
MEAN_ANOMALY   = 199.9857

EPHEMERIS_TYPE = 0
CLASSIFICATION_TYPE = U
NORAD_CAT_ID   = 66037
ELEMENT_SET_NO = 999
REV_AT_EPOCH   = 230
BSTAR          = .28966E-3
MEAN_MOTION_DOT = .708E-5
MEAN_MOTION_DDOT = 0

CCSDS_OMM_VERS = 2.0
CREATION_DATE  = 
ORIGINATOR     = 

OBJECT_NAME    = QIANFAN-96
OBJECT_ID      = 2025-233F
CENTER_NAME    = EARTH
REF_FRAME      = TEME
TIME_SYSTEM    = UTC
MEAN_ELEMENT_THEORY = SGP/SGP4

EPOCH          = 2025-11-02T11:29:34.442304
MEAN_MOTION    = 14.26152128
ECCENTRICITY   = .0015777
INCLINATION    = 88.9948
RA_OF_ASC_NODE = 66.6652
ARG_OF_PERICENTER = 162.1684
MEAN_ANOMALY   = 198.0066

EPHEMERIS_TYPE = 0
CLASSIFICATION_TYPE = U
NORAD_CAT_ID   = 66038
ELEMENT_SET_NO = 999
REV_AT_EPOCH   = 230
BSTAR          = .28175E-3
MEAN_MOTION_DOT = .689E-5
MEAN_MOTION_DDOT = 0

CCSDS_OMM_VERS = 2.0
CREATION_DATE  = 
ORIGINATOR     = 

OBJECT_NAME    = QIANFAN-97
OBJECT_ID      = 2025-233G
CENTER_NAME    = EARTH
REF_FRAME      = TEME
TIME_SYSTEM    = UTC
MEAN_ELEMENT_THEORY = SGP/SGP4

EPOCH          = 2025-11-02T11:29:27.076704
MEAN_MOTION    = 14.26158040
ECCENTRICITY   = .0015347
INCLINATION    = 88.9948
RA_OF_ASC_NODE = 66.6652
ARG_OF_PERICENTER = 161.5887
MEAN_ANOMALY   = 198.5865

EPHEMERIS_TYPE = 0
CLASSIFICATION_TYPE = U
NORAD_CAT_ID   = 66039
ELEMENT_SET_NO = 999
REV_AT_EPOCH   = 230
BSTAR          = .28299E-3
MEAN_MOTION_DOT = .692E-5
MEAN_MOTION_DDOT = 0

CCSDS_OMM_VERS = 2.0
CREATION_DATE  = 
ORIGINATOR     = 

OBJECT_NAME    = QIANFAN-98
OBJECT_ID      = 2025-233H
CENTER_NAME    = EARTH
REF_FRAME      = TEME
TIME_SYSTEM    = UTC
MEAN_ELEMENT_THEORY = SGP/SGP4

EPOCH          = 2025-11-02T11:29:08.683872
MEAN_MOTION    = 14.26179524
ECCENTRICITY   = .0014998
INCLINATION    = 88.9948
RA_OF_ASC_NODE = 66.6652
ARG_OF_PERICENTER = 160.2496
MEAN_ANOMALY   = 199.9281

EPHEMERIS_TYPE = 0
CLASSIFICATION_TYPE = U
NORAD_CAT_ID   = 66040
ELEMENT_SET_NO = 999
REV_AT_EPOCH   = 230
BSTAR          = .28262E-3
MEAN_MOTION_DOT = .692E-5
MEAN_MOTION_DDOT = 0

CCSDS_OMM_VERS = 2.0
CREATION_DATE  = 
ORIGINATOR     = 

OBJECT_NAME    = QIANFAN-99
OBJECT_ID      = 2025-233J
CENTER_NAME    = EARTH
REF_FRAME      = TEME
TIME_SYSTEM    = UTC
MEAN_ELEMENT_THEORY = SGP/SGP4

EPOCH          = 2025-11-02T11:28:59.630016
MEAN_MOTION    = 14.26194970
ECCENTRICITY   = .0015146
INCLINATION    = 88.9947
RA_OF_ASC_NODE = 66.6651
ARG_OF_PERICENTER = 159.3652
MEAN_ANOMALY   = 200.8156

EPHEMERIS_TYPE = 0
CLASSIFICATION_TYPE = U
NORAD_CAT_ID   = 66041
ELEMENT_SET_NO = 999
REV_AT_EPOCH   = 230
BSTAR          = .28205E-3
MEAN_MOTION_DOT = .69E-5
MEAN_MOTION_DDOT = 0

CCSDS_OMM_VERS = 2.0
CREATION_DATE  = 
ORIGINATOR     = 

OBJECT_NAME    = QIANFAN-100
OBJECT_ID      = 2025-233K
CENTER_NAME    = EARTH
REF_FRAME      = TEME
TIME_SYSTEM    = UTC
MEAN_ELEMENT_THEORY = SGP/SGP4

EPOCH          = 2025-11-02T11:28:55.468128
MEAN_MOTION    = 14.26210627
ECCENTRICITY   = .0015583
INCLINATION    = 88.9948
RA_OF_ASC_NODE = 66.6652
ARG_OF_PERICENTER = 161.0955
MEAN_ANOMALY   = 199.0820

EPHEMERIS_TYPE = 0
CLASSIFICATION_TYPE = U
NORAD_CAT_ID   = 66042
ELEMENT_SET_NO = 999
REV_AT_EPOCH   = 230
BSTAR          = .28188E-3
MEAN_MOTION_DOT = .69E-5
MEAN_MOTION_DDOT = 0

CCSDS_OMM_VERS = 2.0
CREATION_DATE  = 
ORIGINATOR     = 

OBJECT_NAME    = QIANFAN-101
OBJECT_ID      = 2025-233L
CENTER_NAME    = EARTH
REF_FRAME      = TEME
TIME_SYSTEM    = UTC
MEAN_ELEMENT_THEORY = SGP/SGP4

EPOCH          = 2025-11-02T11:26:26.274336
MEAN_MOTION    = 14.26632831
ECCENTRICITY   = .0015514
INCLINATION    = 88.9948
RA_OF_ASC_NODE = 66.6649
ARG_OF_PERICENTER = 159.3656
MEAN_ANOMALY   = 200.8167

EPHEMERIS_TYPE = 0
CLASSIFICATION_TYPE = U
NORAD_CAT_ID   = 66043
ELEMENT_SET_NO = 999
REV_AT_EPOCH   = 230
BSTAR          = .20991E-3
MEAN_MOTION_DOT = .522E-5
MEAN_MOTION_DDOT = 0

CCSDS_OMM_VERS = 2.0
CREATION_DATE  = 
ORIGINATOR     = 

OBJECT_NAME    = QIANFAN-102
OBJECT_ID      = 2025-233M
CENTER_NAME    = EARTH
REF_FRAME      = TEME
TIME_SYSTEM    = UTC
MEAN_ELEMENT_THEORY = SGP/SGP4

EPOCH          = 2025-11-02T11:28:46.962048
MEAN_MOTION    = 14.26214672
ECCENTRICITY   = .0015949
INCLINATION    = 88.9947
RA_OF_ASC_NODE = 66.6651
ARG_OF_PERICENTER = 161.2221
MEAN_ANOMALY   = 198.9564

EPHEMERIS_TYPE = 0
CLASSIFICATION_TYPE = U
NORAD_CAT_ID   = 66044
ELEMENT_SET_NO = 999
REV_AT_EPOCH   = 230
BSTAR          = .28934E-3
MEAN_MOTION_DOT = .708E-5
MEAN_MOTION_DDOT = 0

CCSDS_OMM_VERS = 2.0
CREATION_DATE  = 
ORIGINATOR     = 

OBJECT_NAME    = QIANFAN-103
OBJECT_ID      = 2025-233N
CENTER_NAME    = EARTH
REF_FRAME      = TEME
TIME_SYSTEM    = UTC
MEAN_ELEMENT_THEORY = SGP/SGP4

EPOCH          = 2025-11-02T11:28:25.827744
MEAN_MOTION    = 14.26243894
ECCENTRICITY   = .0015339
INCLINATION    = 88.9948
RA_OF_ASC_NODE = 66.6652
ARG_OF_PERICENTER = 159.9703
MEAN_ANOMALY   = 200.2096

EPHEMERIS_TYPE = 0
CLASSIFICATION_TYPE = U
NORAD_CAT_ID   = 66045
ELEMENT_SET_NO = 999
REV_AT_EPOCH   = 230
BSTAR          = .28938E-3
MEAN_MOTION_DOT = .709E-5
MEAN_MOTION_DDOT = 0

